NORAD_CAT_ID,OBJECT_NAME,OBJECT_TYPE,EPOCH,MEAN_MOTION,ECCENTRICITY,INCLINATION,RA_OF_ASC_NODE,ARG_OF_PERICENTER,MEAN_ANOMALY,BSTAR,MEAN_MOTION_DOT,MEAN_MOTION_DDOT,TLE_LINE0,TLE_LINE1,TLE_LINE2,SEMIMAJOR_AXIS,PERIOD,APOGEE,PERIGEE,DECAYED
56473.0,STARLINK-5486,PAYLOAD,2024-07-23 23:01:19,14.98326447,0.0003295,69.9997,181.4827,267.7762,92.302,-4.7653e-06,-1.5e-06,0.0,0 STARLINK-5486,1 56473U 23064AB  24205.95924836 -.00000150  00000-0 -47653-5 0  9997,2 56473  69.9997 181.4827 0003295 267.7762  92.3020 14.98326447 66807,6950.204,96.107,574.359,569.779,0.0
56473.0,STARLINK-5486,PAYLOAD,2024-07-24 05:25:51,14.98325478,0.0003307,69.9996,180.8097,267.194,92.884,-1.6362e-05,-2.88e-06,0.0,0 STARLINK-5486,1 56473U 23064AB  24206.22628977 -.00000288  00000-0 -16362-4 0  9999,2 56473  69.9996 180.8097 0003307 267.1940  92.8840 14.98325478 67207,6950.207,96.107,574.37,569.773,0.0
56473.0,STARLINK-5486,PAYLOAD,2024-07-24 08:38:07,14.98324966,0.0003322,69.9995,180.4726,268.1768,91.9011,-2.2375e-05,-3.6e-06,0.0,0 STARLINK-5486,1 56473U 23064AB  24206.35981065 -.00000360  00000-0 -22375-4 0  9995,2 56473  69.9995 180.4726 0003322 268.1768  91.9011 14.98324966 66869,6950.208,96.107,574.382,569.765,0.0
56473.0,STARLINK-5486,PAYLOAD,2024-07-24 23:03:19,14.98331753,0.000332,69.9994,178.9575,268.7856,91.2923,-2.2252e-05,-3.59e-06,0.0,0 STARLINK-5486,1 56473U 23064AB  24206.96064692 -.00000359  00000-0 -22252-4 0  9992,2 56473  69.9994 178.9575 0003320 268.7856  91.2923 14.98331753 66951,6950.187,96.107,574.36,569.745,0.0
56473.0,STARLINK-5486,PAYLOAD,2024-07-25 05:27:52,14.98332125,0.0003318,69.9995,178.2843,268.7909,91.2869,-1.3939e-05,-2.59e-06,0.0,0 STARLINK-5486,1 56473U 23064AB  24207.22768622 -.00000259  00000-0 -13939-4 0  9997,2 56473  69.9995 178.2843 0003318 268.7909  91.2869 14.98332125 67357,6950.186,96.107,574.357,569.745,0.0
56473.0,STARLINK-5486,PAYLOAD,2024-07-25 08:40:08,14.98332495,0.0003314,69.9995,177.9476,268.9058,91.1721,-8.2232e-06,-1.91e-06,0.0,0 STARLINK-5486,1 56473U 23064AB  24207.36120570 -.00000191  00000-0 -82232-5 0  9994,2 56473  69.9995 177.9476 0003314 268.9058  91.1721 14.98332495 67017,6950.185,96.107,574.353,569.747,0.0
56473.0,STARLINK-5486,PAYLOAD,2024-07-26 05:29:53,14.98328933,0.000333,69.9994,175.7593,269.9619,90.1159,7.2239e-05,7.69e-06,0.0,0 STARLINK-5486,1 56473U 23064AB  24208.22908569  .00000769  00000-0  72239-4 0  9996,2 56473  69.9994 175.7593 0003330 269.9619  90.1159 14.98328933 67504,6950.196,96.107,574.376,569.747,0.0
56473.0,STARLINK-5486,PAYLOAD,2024-07-26 08:42:09,14.98329393,0.0003311,69.9995,175.4227,269.8327,90.2452,7.5221e-05,8.05e-06,0.0,0 STARLINK-5486,1 56473U 23064AB  24208.36260538  .00000805  00000-0  75221-4 0  9993,2 56473  69.9995 175.4227 0003311 269.8327  90.2452 14.98329393 67160,6950.195,96.107,574.361,569.759,0.0
56473.0,STARLINK-5486,PAYLOAD,2024-07-26 15:06:41,14.983302,0.00033,69.9995,174.7494,269.9792,90.0989,4.7821e-05,4.78e-06,0.0,0 STARLINK-5486,1 56473U 23064AB  24208.62964555  .00000478  00000-0  47821-4 0  9993,2 56473  69.9995 174.7494 0003300 269.9792  90.0989 14.98330200 67200,6950.192,96.107,574.351,569.764,0.0
56473.0,STARLINK-5486,PAYLOAD,2024-07-27 05:31:53,14.98332021,0.0003269,69.9997,173.2347,269.8312,90.2473,2.4362e-05,1.98e-06,0.0,0 STARLINK-5486,1 56473U 23064AB  24209.23048451  .00000198  00000-0  24362-4 0  9993,2 56473  69.9997 173.2347 0003269 269.8312  90.2473 14.98332021 67296,6950.187,96.107,574.324,569.78,0.0
56473.0,STARLINK-5486,PAYLOAD,2024-07-27 07:08:01,14.98332382,0.0003264,69.9997,173.0664,269.8323,90.2462,2.7984e-05,2.41e-06,0.0,0 STARLINK-5486,1 56473U 23064AB  24209.29724408  .00000241  00000-0  27984-4 0  9994,2 56473  69.9997 173.0664 0003264 269.8323  90.2462 14.98332382 67662,6950.186,96.107,574.319,569.782,0.0
56473.0,STARLINK-5486,PAYLOAD,2024-07-27 21:33:14,14.98329642,0.0003231,69.9997,171.5517,269.7392,90.3397,-1.8046e-05,-3.08e-06,0.0,0 STARLINK-5486,1 56473U 23064AB  24209.89808661 -.00000308  00000-0 -18046-4 0  9999,2 56473  69.9997 171.5517 0003231 269.7392  90.3397 14.98329642 67394,6950.194,96.107,574.305,569.813,0.0
56473.0,STARLINK-5486,PAYLOAD,2024-07-28 07:10:03,14.983302,0.0003234,69.9997,170.542,270.1705,89.9084,-8.3551e-06,-1.93e-06,0.0,0 STARLINK-5486,1 56473U 23064AB  24210.29864599 -.00000193  00000-0 -83551-5 0  9993,2 56473  69.9997 170.5420 0003234 270.1705  89.9084 14.98330200 67819,6950.192,96.107,574.305,569.81,0.0
56473.0,STARLINK-5486,PAYLOAD,2024-07-28 21:35:15,14.98331649,0.000323,69.9998,169.0272,270.3771,89.7018,-1.0223e-06,-1.05e-06,0.0,0 STARLINK-5486,1 56473U 23064AB  24210.89948451 -.00000105  00000-0 -10223-5 0  9998,2 56473  69.9998 169.0272 0003230 270.3771  89.7018 14.98331649 67542,6950.188,96.107,574.298,569.808,0.0
56473.0,STARLINK-5486,PAYLOAD,2024-07-29 07:12:03,14.98333217,0.0003207,69.9999,168.0171,270.2481,89.8311,3.9421e-05,3.77e-06,0.0,0 STARLINK-5486,1 56473U 23064AB  24211.30004175  .00000377  00000-0  39421-4 0  9990,2 56473  69.9999 168.0171 0003207 270.2481  89.8311 14.98333217 67967,6950.183,96.107,574.277,569.819,0.0
56473.0,STARLINK-5486,PAYLOAD,2024-07-29 21:37:16,14.98329321,0.0003163,70.0,166.5023,270.0952,89.9845,2.8031e-05,2.41e-06,0.0,0 STARLINK-5486,1 56473U 23064AB  24211.90088387  .00000241  00000-0  28031-4 0  9998,2 56473  70.0000 166.5023 0003163 270.0952  89.9845 14.98329321 67698,6950.195,96.107,574.258,569.862,0.0
56473.0,STARLINK-5486,PAYLOAD,2024-07-30 07:14:04,14.98330477,0.0003161,70.0001,165.4926,270.0703,90.0094,3.6616e-05,3.44e-06,0.0,0 STARLINK-5486,1 56473U 23064AB  24212.30144292  .00000344  00000-0  36616-4 0  9993,2 56473  70.0001 165.4926 0003161 270.0703  90.0094 14.98330477 68112,6950.191,96.107,574.253,569.859,0.0
56473.0,STARLINK-5486,PAYLOAD,2024-07-30 13:38:36,14.98329938,0.000315,70.0002,164.8193,270.0706,90.0092,1.5087e-05,8.7e-07,0.0,0 STARLINK-5486,1 56473U 23064AB  24212.56848369  .00000087  00000-0  15087-4 0  9990,2 56473  70.0002 164.8193 0003150 270.0706  90.0092 14.98329938 67794,6950.193,96.107,574.247,569.869,0.0
56473.0,STARLINK-5486,PAYLOAD,2024-07-30 23:15:25,14.98331634,0.0003124,70.0002,163.8095,270.0603,90.0198,-7.4501e-06,-1.82e-06,0.0,0 STARLINK-5486,1 56473U 23064AB  24212.96904300 -.00000182  00000-0 -74501-5 0  9997,2 56473  70.0002 163.8095 0003124 270.0603  90.0198 14.98331634 67851,6950.188,96.107,574.224,569.882,0.0
56473.0,STARLINK-5486,PAYLOAD,2024-07-31 07:16:05,14.98333445,0.00031,70.0002,162.968,269.9197,90.1607,1.3998e-05,7.4e-07,0.0,0 STARLINK-5486,1 56473U 23064AB  24213.30284071  .00000074  00000-0  13998-4 0  9992,2 56473  70.0002 162.9680 0003100 269.9197  90.1607 14.98333445 68264,6950.182,96.107,574.202,569.893,0.0
56473.0,STARLINK-5486,PAYLOAD,2024-07-31 13:40:37,14.98329905,0.0003084,70.0003,162.2948,269.8198,90.2608,-2.3226e-05,-3.7e-06,0.0,0 STARLINK-5486,1 56473U 23064AB  24213.56988353 -.00000370  00000-0 -23226-4 0  9990,2 56473  70.0003 162.2948 0003084 269.8198  90.2608 14.98329905 67948,6950.193,96.107,574.202,569.915,0.0
56473.0,STARLINK-5486,PAYLOAD,2024-07-31 21:41:18,14.98326284,0.0003038,70.0004,161.4533,269.9299,90.1512,-2.5009e-05,-3.91e-06,0.0,0 STARLINK-5486,1 56473U 23064AB  24213.90368612 -.00000391  00000-0 -25009-4 0  9992,2 56473  70.0004 161.4533 0003038 269.9299  90.1512 14.98326284 68358,6950.204,96.107,574.181,569.958,0.0
56473.0,STARLINK-5486,PAYLOAD,2024-07-31 23:17:26,14.98325938,0.0003047,70.0004,161.285,269.6671,90.4139,-2.8646e-05,-4.35e-06,0.0,0 STARLINK-5486,1 56473U 23064AB  24213.97044651 -.00000435  00000-0 -28646-4 0  9992,2 56473  70.0004 161.2850 0003047 269.6671  90.4139 14.98325938 68004,6950.205,96.107,574.188,569.953,0.0
56473.0,STARLINK-5486,PAYLOAD,2024-08-01 13:42:38,14.98330947,0.0003011,70.0004,159.7703,269.4053,90.6761,2.2938e-05,1.81e-06,0.0,0 STARLINK-5486,1 56473U 23064AB  24214.57128218  .00000181  00000-0  22938-4 0  9995,2 56473  70.0004 159.7703 0003011 269.4053  90.6761 14.98330947 68094,6950.19,96.107,574.148,569.962,0.0
56473.0,STARLINK-5486,PAYLOAD,2024-08-01 21:43:18,14.98333799,0.0002966,70.0004,158.9287,268.4891,91.5928,2.0974e-05,1.57e-06,0.0,0 STARLINK-5486,1 56473U 23064AB  24214.90507994  .00000157  00000-0  20974-4 0  9995,2 56473  70.0004 158.9287 0002966 268.4891  91.5928 14.98333799 68508,6950.181,96.107,574.108,569.985,0.0
56473.0,STARLINK-5486,PAYLOAD,2024-08-02 13:44:39,14.98331611,0.0002973,70.0003,157.2457,266.7605,93.3213,-4.4904e-06,-1.47e-06,0.0,0 STARLINK-5486,1 56473U 23064AB  24215.57268025 -.00000147  00000-0 -44904-5 0  9999,2 56473  70.0003 157.2457 0002973 266.7605  93.3213 14.98331611 68249,6950.188,96.107,574.119,569.987,0.0
56473.0,STARLINK-5486,PAYLOAD,2024-08-02 21:45:20,14.98324289,0.0002919,70.0003,156.4041,268.5005,91.5819,1.1018e-05,3.8e-07,0.0,0 STARLINK-5486,1 56473U 23064AB  24215.90648515  .00000038  00000-0  11018-4 0  9998,2 56473  70.0003 156.4041 0002919 268.5005  91.5819 14.98324289 68653,6950.211,96.107,574.104,570.047,0.0
56473.0,STARLINK-5486,PAYLOAD,2024-08-03 13:46:40,14.98328098,0.0002955,70.0002,154.7205,270.4827,89.5993,-2.4123e-05,-3.81e-06,0.0,0 STARLINK-5486,1 56473U 23064AB  24216.57408455 -.00000381  00000-0 -24123-4 0  9993,2 56473  70.0002 154.7205 0002955 270.4827  89.5993 14.98328098 68392,6950.199,96.107,574.118,570.01,0.0
56473.0,STARLINK-5486,PAYLOAD,2024-08-03 20:11:12,14.98331655,0.0002975,70.0001,154.0472,270.6709,89.4109,-1.3184e-05,-2.5e-06,0.0,0 STARLINK-5486,1 56473U 23064AB  24216.84112186 -.00000250  00000-0 -13184-4 0  9996,2 56473  70.0001 154.0472 0002975 270.6709  89.4109 14.98331655 68798,6950.188,96.107,574.12,569.985,0.0
56473.0,STARLINK-5486,PAYLOAD,2024-08-03 21:47:20,14.98332054,0.0002973,70.0002,153.8789,270.6315,89.4503,-8.6895e-06,-1.97e-06,0.0,0 STARLINK-5486,1 56473U 23064AB  24216.90788140 -.00000197  00000-0 -86895-5 0  9992,2 56473  70.0002 153.8789 0002973 270.6315  89.4503 14.98332054 68442,6950.187,96.107,574.118,569.985,0.0
